{"type": "FeatureCollection", "features": [ {"type": "Feature", "properties": {"norad_id": 64902, "name": "CO3D 2", "group": "resource", "lat": 72.12711445150033, "lon": -83.61173341229934, "alt_km": 497.94397775352263, "timestamp": "2025-12-22T08:58:20.001376+00:00", "meta": {"OBJECT_NAME": "CO3D 2", "OBJECT_ID": "2025-156D", "EPOCH": "2025-12-21T16:42:32.405760", "MEAN_MOTION": 15.20195819, "ECCENTRICITY": 7.56e-05, "INCLINATION": 97.434, "RA_OF_ASC_NODE": 71.8347, "ARG_OF_PERICENTER": 63.7971, "MEAN_ANOMALY": 296.3342, "EPHEMERIS_TYPE": 0, "CLASSIFICATION_TYPE": "U", "NORAD_CAT_ID": 64902, "ELEMENT_SET_NO": 999, "REV_AT_EPOCH": 2256, "BSTAR": 0.00013571, "MEAN_MOTION_DOT": 2.871e-05, "MEAN_MOTION_DDOT": 0}, "tle": {"line1": "1 64902U 25156D   25355.69620840  .00002871  00000+0  13571-3 0  9992", "line2": "2 64902  97.4340  71.8347 0000756  63.7971 296.3342 15.20195819 22566"}}, "geometry": {"type": "Point", "coordinates": [-83.61173341229934, 72.12711445150033]}}, {"type": "Feature", "properties": {"norad_id": 64903, "name": "CO3D 1", "group": "resource", "lat": 72.87240286686267, "lon": -82.42896064727387, "alt_km": 497.6447961488975, "timestamp": "2025-12-22T08:58:20.001386+00:00", "meta": {"OBJECT_NAME": "CO3D 1", "OBJECT_ID": "2025-156E", "EPOCH": "2025-12-22T03:46:15.420288", "MEAN_MOTION": 15.2021827, "ECCENTRICITY": 8.8e-05, "INCLINATION": 97.4341, "RA_OF_ASC_NODE": 72.2884, "ARG_OF_PERICENTER": 81.5764, "MEAN_ANOMALY": 278.5571, "EPHEMERIS_TYPE": 0, "CLASSIFICATION_TYPE": "U", "NORAD_CAT_ID": 64903, "ELEMENT_SET_NO": 999, "REV_AT_EPOCH": 2263, "BSTAR": 0.0003184, "MEAN_MOTION_DOT": 6.834e-05, "MEAN_MOTION_DDOT": 0}, "tle": {"line1": "1 64903U 25156E   25356.15712292  .00006834  00000+0  31840-3 0  9990", "line2": "2 64903  97.4341  72.2884 0000880  81.5764 278.5571 15.20218270 22636"}}, "geometry": {"type": "Point", "coordinates": [-82.42896064727387, 72.87240286686267]}}, {"type": "Feature", "properties": {"norad_id": 66514, "name": "SENTINEL-6B", "group": "resource", "lat": -62.305053084942, "lon": 20.314011405772632, "alt_km": 1335.8601596540311, "timestamp": "2025-12-22T08:58:20.001396+00:00", "meta": {"OBJECT_NAME": "SENTINEL-6B", "OBJECT_ID": "2025-264A", "EPOCH": "2025-12-12T06:01:21.427680", "MEAN_MOTION": 12.81479575, "ECCENTRICITY": 0.0007848, "INCLINATION": 66.0385, "RA_OF_ASC_NODE": 163.4531, "ARG_OF_PERICENTER": 270.1375, "MEAN_ANOMALY": 89.8741, "EPHEMERIS_TYPE": 0, "CLASSIFICATION_TYPE": "U", "NORAD_CAT_ID": 66514, "ELEMENT_SET_NO": 999, "REV_AT_EPOCH": 322, "BSTAR": 0.00018195, "MEAN_MOTION_DOT": -1.9e-07, "MEAN_MOTION_DDOT": 0}, "tle": {"line1": "1 66514U 25264A   25346.25094245 -.00000019  00000+0  18195-3 0  9999", "line2": "2 66514  66.0385 163.4531 0007848 270.1375  89.8741 12.81479575  3220"}}, "geometry": {"type": "Point", "coordinates": [20.314011405772632, -62.305053084942]}}]}